start=new Date('2022-03-24T00:00:00.000Z').valueOf();
sats=[{"ARG_OF_PERICENTER":"87.6584","MEAN_MOTION":"15.06402441","FILE":"3371636","LAUNCH_DATE":"2021-03-11","NORAD_CAT_ID":"47827","MEAN_ELEMENT_THEORY":"SGP4","COUNTRY_CODE":"US","RCS_SIZE":"LARGE","EPHEMERIS_TYPE":"0","TLE_LINE2":"2 47827  53.0528 256.9507 0001352  87.6584 272.4559 15.06402441 58718","GP_ID":"199538357","REV_AT_EPOCH":"5871","SITE":"AFETR","MEAN_ANOMALY":"272.4559","MEAN_MOTION_DDOT":"0.0000000000000","OBJECT_NAME":"STARLINK-2413","REF_FRAME":"TEME","SEMIMAJOR_AXIS":"6925.341","APOAPSIS":"548.142","PERIAPSIS":"546.270","EPOCH":"2022-03-23T19:17:22.165728","CLASSIFICATION_TYPE":"U","BSTAR":"0.00013410000000","PERIOD":"95.592","OBJECT_ID":"2021-018AS","MEAN_MOTION_DOT":"0.00001717","DECAY_DATE":null,"OBJECT_TYPE":"PAYLOAD","ELEMENT_SET_NO":"999","INCLINATION":"53.0528","CENTER_NAME":"EARTH","TLE_LINE1":"1 47827U 21018AS  22082.80372877  .00001717  00000-0  13410-3 0  9994","RA_OF_ASC_NODE":"256.9507","TIME_SYSTEM":"UTC","ECCENTRICITY":"0.00013520"},{"ECCENTRICITY":"0.00018520","TIME_SYSTEM":"UTC","RA_OF_ASC_NODE":"276.8401","TLE_LINE1":"1 47828U 21018AT  22082.82863744  .00003066  00000-0  22460-3 0  9999","CENTER_NAME":"EARTH","INCLINATION":"53.0531","ELEMENT_SET_NO":"999","OBJECT_TYPE":"PAYLOAD","MEAN_MOTION_DOT":"0.00003066","DECAY_DATE":null,"PERIOD":"95.592","OBJECT_ID":"2021-018AT","BSTAR":"0.00022460000000","EPOCH":"2022-03-23T19:53:14.274816","CLASSIFICATION_TYPE":"U","APOAPSIS":"548.473","PERIAPSIS":"545.907","SEMIMAJOR_AXIS":"6925.325","OBJECT_NAME":"STARLINK-2415","REF_FRAME":"TEME","MEAN_MOTION_DDOT":"0.0000000000000","SITE":"AFETR","MEAN_ANOMALY":"300.8325","REV_AT_EPOCH":"5838","GP_ID":"199536605","EPHEMERIS_TYPE":"0","TLE_LINE2":"2 47828  53.0531 276.8401 0001852  59.2846 300.8325 15.06407670 58387","RCS_SIZE":"LARGE","COUNTRY_CODE":"US","NORAD_CAT_ID":"47828","MEAN_ELEMENT_THEORY":"SGP4","LAUNCH_DATE":"2021-03-11","MEAN_MOTION":"15.06407670","FILE":"3371636","ARG_OF_PERICENTER":"59.2846"},{"TLE_LINE1":"1 47829U 21018AU  22082.84709149  .00005141  00000-0  36383-3 0  9995","INCLINATION":"53.0533","CENTER_NAME":"EARTH","ELEMENT_SET_NO":"999","OBJECT_TYPE":"PAYLOAD","ECCENTRICITY":"0.00018380","TIME_SYSTEM":"UTC","RA_OF_ASC_NODE":"276.7587","APOAPSIS":"548.496","PERIAPSIS":"545.950","SEMIMAJOR_AXIS":"6925.358","OBJECT_NAME":"STARLINK-2416","REF_FRAME":"TEME","MEAN_MOTION_DDOT":"0.0000000000000","DECAY_DATE":null,"MEAN_MOTION_DOT":"0.00005141","PERIOD":"95.592","OBJECT_ID":"2021-018AU","BSTAR":"0.00036383000000","EPOCH":"2022-03-23T20:19:48.704736","CLASSIFICATION_TYPE":"U","EPHEMERIS_TYPE":"0","TLE_LINE2":"2 47829  53.0533 276.7587 0001838  67.0828 293.0354 15.06396842 58377","SITE":"AFETR","MEAN_ANOMALY":"293.0354","REV_AT_EPOCH":"5837","GP_ID":"199536855","MEAN_MOTION":"15.06396842","FILE":"3371636","ARG_OF_PERICENTER":"67.0828","RCS_SIZE":"MEDIUM","COUNTRY_CODE":"US","NORAD_CAT_ID":"47829","MEAN_ELEMENT_THEORY":"SGP4","LAUNCH_DATE":"2021-03-11"},{"FILE":"3371636","MEAN_MOTION":"15.06408135","ARG_OF_PERICENTER":"61.6471","RCS_SIZE":"LARGE","COUNTRY_CODE":"US","MEAN_ELEMENT_THEORY":"SGP4","NORAD_CAT_ID":"47830","LAUNCH_DATE":"2021-03-11","TLE_LINE2":"2 47830  53.0539 276.7713 0001552  61.6471 298.4674 15.06408135 58376","EPHEMERIS_TYPE":"0","MEAN_ANOMALY":"298.4674","SITE":"AFETR","REV_AT_EPOCH":"5837","GP_ID":"199538107","APOAPSIS":"548.263","PERIAPSIS":"546.114","SEMIMAJOR_AXIS":"6925.324","REF_FRAME":"TEME","OBJECT_NAME":"STARLINK-2419","MEAN_MOTION_DDOT":"0.0000000000000","DECAY_DATE":null,"MEAN_MOTION_DOT":"0.00002332","OBJECT_ID":"2021-018AV","PERIOD":"95.592","BSTAR":"0.00017538000000","CLASSIFICATION_TYPE":"U","EPOCH":"2022-03-23T20:14:27.947328","TLE_LINE1":"1 47830U 21018AV  22082.84337902  .00002332  00000-0  17538-3 0  9991","CENTER_NAME":"EARTH","INCLINATION":"53.0539","ELEMENT_SET_NO":"999","OBJECT_TYPE":"PAYLOAD","ECCENTRICITY":"0.00015520","TIME_SYSTEM":"UTC","RA_OF_ASC_NODE":"276.7713"},{"GP_ID":"199537857","REV_AT_EPOCH":"5878","SITE":"AFETR","MEAN_ANOMALY":"299.0771","TLE_LINE2":"2 47831  53.0612 251.7468 0001538  61.0372 299.0771 15.06404920 58785","EPHEMERIS_TYPE":"0","LAUNCH_DATE":"2021-03-11","NORAD_CAT_ID":"47831","MEAN_ELEMENT_THEORY":"SGP4","COUNTRY_CODE":"US","RCS_SIZE":"LARGE","ARG_OF_PERICENTER":"61.0372","MEAN_MOTION":"15.06404920","FILE":"3371636","RA_OF_ASC_NODE":"251.7468","TIME_SYSTEM":"UTC","ECCENTRICITY":"0.00015380","OBJECT_TYPE":"PAYLOAD","ELEMENT_SET_NO":"999","INCLINATION":"53.0612","CENTER_NAME":"EARTH","TLE_LINE1":"1 47831U 21018AW  22082.84384177  .00001621  00000-0  12767-3 0  9997","EPOCH":"2022-03-23T20:15:07.928928","CLASSIFICATION_TYPE":"U","BSTAR":"0.00012767000000","PERIOD":"95.592","OBJECT_ID":"2021-018AW","MEAN_MOTION_DOT":"0.00001621","DECAY_DATE":null,"MEAN_MOTION_DDOT":"0.0000000000000","OBJECT_NAME":"STARLINK-2420","REF_FRAME":"TEME","SEMIMAJOR_AXIS":"6925.333","PERIAPSIS":"546.133","APOAPSIS":"548.264"},{"CENTER_NAME":"EARTH","INCLINATION":"53.0534","TLE_LINE1":"1 47832U 21018AX  22082.60102573  .00001127  00000-0  94513-4 0  9991","OBJECT_TYPE":"PAYLOAD","ELEMENT_SET_NO":"999","TIME_SYSTEM":"UTC","ECCENTRICITY":"0.00014280","RA_OF_ASC_NODE":"267.8623","SEMIMAJOR_AXIS":"6925.332","PERIAPSIS":"546.208","APOAPSIS":"548.185","MEAN_MOTION_DDOT":"0.0000000000000","REF_FRAME":"TEME","OBJECT_NAME":"STARLINK-2422","OBJECT_ID":"2021-018AX","PERIOD":"95.592","MEAN_MOTION_DOT":"0.00001127","DECAY_DATE":null,"CLASSIFICATION_TYPE":"U","EPOCH":"2022-03-23T14:25:28.623072","BSTAR":"0.00009451300000","EPHEMERIS_TYPE":"0","TLE_LINE2":"2 47832  53.0534 267.8623 0001428  66.7631 293.3508 15.06405548 58487","MEAN_ANOMALY":"293.3508","SITE":"AFETR","GP_ID":"199537106","REV_AT_EPOCH":"5848","ARG_OF_PERICENTER":"66.7631","FILE":"3371636","MEAN_MOTION":"15.06405548","COUNTRY_CODE":"US","RCS_SIZE":"LARGE","LAUNCH_DATE":"2021-03-11","MEAN_ELEMENT_THEORY":"SGP4","NORAD_CAT_ID":"47832"},{"OBJECT_TYPE":"PAYLOAD","ELEMENT_SET_NO":"999","CENTER_NAME":"EARTH","INCLINATION":"53.0541","TLE_LINE1":"1 47833U 21018AY  22082.82586889  .00001175  00000-0  97742-4 0  9992","RA_OF_ASC_NODE":"266.8563","TIME_SYSTEM":"UTC","ECCENTRICITY":"0.00014900","MEAN_MOTION_DDOT":"0.0000000000000","OBJECT_NAME":"STARLINK-2423","REF_FRAME":"TEME","SEMIMAJOR_AXIS":"6925.331","APOAPSIS":"548.228","PERIAPSIS":"546.164","EPOCH":"2022-03-23T19:49:15.072096","CLASSIFICATION_TYPE":"U","BSTAR":"0.00009774200000","PERIOD":"95.592","OBJECT_ID":"2021-018AY","DECAY_DATE":null,"MEAN_MOTION_DOT":"0.00001175","EPHEMERIS_TYPE":"0","TLE_LINE2":"2 47833  53.0541 266.8563 0001490  63.3077 296.8065 15.06405780 58578","GP_ID":"199537356","REV_AT_EPOCH":"5857","SITE":"AFETR","MEAN_ANOMALY":"296.8065","ARG_OF_PERICENTER":"63.3077","MEAN_MOTION":"15.06405780","FILE":"3371636","LAUNCH_DATE":"2021-03-11","NORAD_CAT_ID":"47833","MEAN_ELEMENT_THEORY":"SGP4","COUNTRY_CODE":"US","RCS_SIZE":"LARGE"},{"SEMIMAJOR_AXIS":"6925.342","APOAPSIS":"548.348","PERIAPSIS":"546.066","MEAN_MOTION_DDOT":"0.0000000000000","OBJECT_NAME":"STARLINK-2424","REF_FRAME":"TEME","PERIOD":"95.592","OBJECT_ID":"2021-018AZ","MEAN_MOTION_DOT":"0.00000675","DECAY_DATE":null,"EPOCH":"2022-03-23T18:29:38.378976","CLASSIFICATION_TYPE":"U","BSTAR":"0.00006423700000","CENTER_NAME":"EARTH","INCLINATION":"53.0537","TLE_LINE1":"1 47834U 21018AZ  22082.77058309  .00000675  00000-0  64237-4 0  9995","OBJECT_TYPE":"PAYLOAD","ELEMENT_SET_NO":"999","TIME_SYSTEM":"UTC","ECCENTRICITY":"0.00016480","RA_OF_ASC_NODE":"267.0984","ARG_OF_PERICENTER":"69.6980","MEAN_MOTION":"15.06402135","FILE":"3371636","COUNTRY_CODE":"US","RCS_SIZE":"LARGE","LAUNCH_DATE":"2021-03-11","NORAD_CAT_ID":"47834","MEAN_ELEMENT_THEORY":"SGP4","EPHEMERIS_TYPE":"0","TLE_LINE2":"2 47834  53.0537 267.0984 0001648  69.6980 290.4186 15.06402135 58565","SITE":"AFETR","MEAN_ANOMALY":"290.4186","GP_ID":"199537607","REV_AT_EPOCH":"5856"},{"TLE_LINE2":"2 47835  53.0525 272.0207 0001671  64.3430 295.7731 15.06400960 58439","EPHEMERIS_TYPE":"0","REV_AT_EPOCH":"5843","GP_ID":"199538358","SITE":"AFETR","MEAN_ANOMALY":"295.7731","MEAN_MOTION":"15.06400960","FILE":"3371636","ARG_OF_PERICENTER":"64.3430","NORAD_CAT_ID":"47835","MEAN_ELEMENT_THEORY":"SGP4","LAUNCH_DATE":"2021-03-11","RCS_SIZE":"LARGE","COUNTRY_CODE":"US","ELEMENT_SET_NO":"999","OBJECT_TYPE":"PAYLOAD","TLE_LINE1":"1 47835U 21018BA  22082.78576910  .00001093  00000-0  92240-4 0  9990","CENTER_NAME":"EARTH","INCLINATION":"53.0525","RA_OF_ASC_NODE":"272.0207","ECCENTRICITY":"0.00016710","TIME_SYSTEM":"UTC","OBJECT_NAME":"STARLINK-2425","REF_FRAME":"TEME","MEAN_MOTION_DDOT":"0.0000000000000","APOAPSIS":"548.368","PERIAPSIS":"546.053","SEMIMAJOR_AXIS":"6925.346","BSTAR":"0.00009224000000","EPOCH":"2022-03-23T18:51:30.450240","CLASSIFICATION_TYPE":"U","DECAY_DATE":null,"MEAN_MOTION_DOT":"0.00001093","PERIOD":"95.592","OBJECT_ID":"2021-018BA"},{"BSTAR":"0.00008490900000","CLASSIFICATION_TYPE":"U","EPOCH":"2022-03-23T18:44:11.512320","DECAY_DATE":null,"MEAN_MOTION_DOT":"0.00000984","OBJECT_ID":"2021-018BB","PERIOD":"95.591","REF_FRAME":"TEME","OBJECT_NAME":"STARLINK-2426","MEAN_MOTION_DDOT":"0.0000000000000","PERIAPSIS":"546.163","APOAPSIS":"548.200","SEMIMAJOR_AXIS":"6925.317","RA_OF_ASC_NODE":"267.0524","ECCENTRICITY":"0.00014710","TIME_SYSTEM":"UTC","ELEMENT_SET_NO":"999","OBJECT_TYPE":"PAYLOAD","TLE_LINE1":"1 47836U 21018BB  22082.78068880  .00000984  00000-0  84909-4 0  9994","INCLINATION":"53.0543","CENTER_NAME":"EARTH","MEAN_ELEMENT_THEORY":"SGP4","NORAD_CAT_ID":"47836","LAUNCH_DATE":"2021-03-11","RCS_SIZE":"LARGE","COUNTRY_CODE":"US","FILE":"3371636","MEAN_MOTION":"15.06410407","ARG_OF_PERICENTER":"69.5505","REV_AT_EPOCH":"5851","GP_ID":"199536606","MEAN_ANOMALY":"290.5642","SITE":"AFETR","TLE_LINE2":"2 47836  53.0543 267.0524 0001471  69.5505 290.5642 15.06410407 58514","EPHEMERIS_TYPE":"0"}];
